[
  {
    "model": "consult_panel.entreprise",
    "pk": 1,
    "fields": {
      "nom": "LiveZ",
      "siret": 9635322793,
      "adresse": "Commercial",
      "ville": "Shejiang",
      "code_postal": 75000,
      "telephone": "0123456789"
    }
  },
  {
    "model": "consult_panel.entreprise",
    "pk": 2,
    "fields": {
      "nom": "Wordtune",
      "siret": 5737936402,
      "adresse": "Kim",
      "ville": "Nanxi",
      "code_postal": 75000,
      "telephone": "0123456789"
    }
  },
  {
    "model": "consult_panel.entreprise",
    "pk": 3,
    "fields": {
      "nom": "Avamba",
      "siret": 2538919800,
      "adresse": "Mesta",
      "ville": "Gengwan",
      "code_postal": 75000,
      "telephone": "0123456789"
    }
  },
  {
    "model": "consult_panel.entreprise",
    "pk": 4,
    "fields": {
      "nom": "Feednation",
      "siret": 7352501030,
      "adresse": "Pennsylvania",
      "ville": "Eslāmābād",
      "code_postal": 75000,
      "telephone": "0123456789"
    }
  },
  {
    "model": "consult_panel.entreprise",
    "pk": 5,
    "fields": {
      "nom": "Flashspan",
      "siret": 7521109380,
      "adresse": "Nova",
      "ville": "Luebo",
      "code_postal": 75000,
      "telephone": "0123456789"
    }
  },
  {
    "model": "consult_panel.entreprise",
    "pk": 6,
    "fields": {
      "nom": "Trudoo",
      "siret": 9302168747,
      "adresse": "Buell",
      "ville": "Satowebrang",
      "code_postal": 75000,
      "telephone": "0123456789"
    }
  },
  {
    "model": "consult_panel.entreprise",
    "pk": 7,
    "fields": {
      "nom": "Gabvine",
      "siret": 1815052290,
      "adresse": "Gulseth",
      "ville": "Toyonaka",
      "code_postal": "771-0217",
      "telephone": "0123456789"
    }
  },
  {
    "model": "consult_panel.entreprise",
    "pk": 8,
    "fields": {
      "nom": "Kamba",
      "siret": 2778870851,
      "adresse": "Park Meadow",
      "ville": "Xarardheere",
      "code_postal": 75000,
      "telephone": "0123456789"
    }
  },
  {
    "model": "consult_panel.entreprise",
    "pk": 9,
    "fields": {
      "nom": "Camimbo",
      "siret": 4245208414,
      "adresse": "Vermont",
      "ville": "Sobreira",
      "code_postal": "4960-180",
      "telephone": "0123456789"
    }
  },
  {
    "model": "consult_panel.entreprise",
    "pk": 10,
    "fields": {
      "nom": "Topicblab",
      "siret": 7969328308,
      "adresse": "Cody",
      "ville": "Meukek",
      "code_postal": 75000,
      "telephone": "0123456789"
    }
  },
  {
    "model": "consult_panel.entreprise",
    "pk": 11,
    "fields": {
      "nom": "Quinu",
      "siret": 9503869577,
      "adresse": "Sutteridge",
      "ville": "Kolomyya",
      "code_postal": 75000,
      "telephone": "0123456789"
    }
  },
  {
    "model": "consult_panel.entreprise",
    "pk": 12,
    "fields": {
      "nom": "Meeveo",
      "siret": 6627234466,
      "adresse": "Portage",
      "ville": "Novovarshavka",
      "code_postal": "646830",
      "telephone": "0123456789"
    }
  },
  {
    "model": "consult_panel.entreprise",
    "pk": 13,
    "fields": {
      "nom": "Yodel",
      "siret": 5483676469,
      "adresse": "Fulton",
      "ville": "Mancos",
      "code_postal": 75000,
      "telephone": "0123456789"
    }
  },
  {
    "model": "consult_panel.entreprise",
    "pk": 14,
    "fields": {
      "nom": "Skyble",
      "siret": 7711364121,
      "adresse": "Pond",
      "ville": "Sabang",
      "code_postal": "3905",
      "telephone": "0123456789"
    }
  },
  {
    "model": "consult_panel.entreprise",
    "pk": 15,
    "fields": {
      "nom": "Kazio",
      "siret": 7578491822,
      "adresse": "Duke",
      "ville": "Wa",
      "code_postal": 75000,
      "telephone": "0123456789"
    }
  }
]